<?xml version="1.0" encoding="UTF-8"?>
<kml xmlns="http://www.opengis.net/kml/2.2">
  <Document>
    <name>Israel Rocket Alerts</name>
    <description>Real-time rocket and missile alerts in Israel. Updated every 5 minutes. Last updated: Sat, May 16, 2026 04:40:10 AM (Israel Time)</description>

    <Style id="poly-critical">
      <LineStyle><color>ff0000ff</color><width>2</width></LineStyle>
      <PolyStyle><color>600000ff</color><outline>1</outline></PolyStyle>
      <BalloonStyle>
        <bgColor>ff1a1a2e</bgColor>
        <textColor>ffffffff</textColor>
      </BalloonStyle>
    </Style>
    <Style id="poly-recent">
      <LineStyle><color>ff0080ff</color><width>2</width></LineStyle>
      <PolyStyle><color>400080ff</color><outline>1</outline></PolyStyle>
      <BalloonStyle>
        <bgColor>ff1a1a2e</bgColor>
        <textColor>ffffffff</textColor>
      </BalloonStyle>
    </Style>
    <Style id="poly-moderate">
      <LineStyle><color>ff00ffff</color><width>1</width></LineStyle>
      <PolyStyle><color>3000ffff</color><outline>1</outline></PolyStyle>
      <BalloonStyle>
        <bgColor>ff1a1a2e</bgColor>
        <textColor>ffffffff</textColor>
      </BalloonStyle>
    </Style>
    <Style id="poly-old">
      <LineStyle><color>ff808080</color><width>1</width></LineStyle>
      <PolyStyle><color>20808080</color><outline>1</outline></PolyStyle>
      <BalloonStyle>
        <bgColor>ff1a1a2e</bgColor>
        <textColor>ffffffff</textColor>
      </BalloonStyle>
    </Style>
    <Folder>
        <name>Alert Zones (1)</name>
        <description>Polygon boundaries for alerted areas. Last updated: Sat, May 16, 2026 04:40:10 AM</description>

        <Placemark>
            <name>Majdal Shams</name>
            <description><![CDATA[
                <div style="font-family: Arial, sans-serif; min-width: 280px;">
                    <h3 style="margin: 0 0 10px 0; color: #d32f2f;">🚨 Hostile Aircraft Intrusion</h3>
                    <table style="width: 100%; border-collapse: collapse; font-size: 13px;">
                        <tr><td style="padding: 4px 8px 4px 0; color: #666; white-space: nowrap;">Type:</td><td style="padding: 4px 0;"><strong>Hostile Aircraft Intrusion</strong></td></tr>
                        <tr><td style="padding: 4px 8px 4px 0; color: #666; white-space: nowrap;">Location:</td><td style="padding: 4px 0;"><strong>Majdal Shams</strong></td></tr>
                        <tr><td style="padding: 4px 8px 4px 0; color: #666;">Hebrew:</td><td style="padding: 4px 0;">מג&apos;דל שמס</td></tr>
                        <tr><td style="padding: 4px 8px 4px 0; color: #666;">Region:</td><td style="padding: 4px 0;">Northern Golan</td></tr>
                        <tr><td style="padding: 4px 8px 4px 0; color: #666;">Date:</td><td style="padding: 4px 0;">Sat, May 16, 2026</td></tr>
                        <tr><td style="padding: 4px 8px 4px 0; color: #666;">Elapsed:</td><td style="padding: 4px 0;"><strong>Just now</strong></td></tr>
                        
                    </table>
                    <div style="margin-top: 10px; padding-top: 8px; border-top: 1px solid #eee;">
                        <div style="font-size: 11px; color: #666; margin-bottom: 4px;">Alert Time:</div>
                        <table style="width: 100%; border-collapse: collapse; font-size: 12px;">
                            <tr><td style="padding: 2px 8px 2px 0; color: #888;">🇮🇱 Israel:</td><td style="padding: 2px 0;"><strong>05:24 AM</strong></td></tr>
                            <tr><td style="padding: 2px 8px 2px 0; color: #888;">🇺🇸 Central:</td><td style="padding: 2px 0;">09:24 PM</td></tr>
                            <tr><td style="padding: 2px 8px 2px 0; color: #888;">🇬🇧 London:</td><td style="padding: 2px 0;">03:24 AM</td></tr>
                            <tr><td style="padding: 2px 8px 2px 0; color: #888;">🇸🇬 Singapore:</td><td style="padding: 2px 0;">10:24 AM</td></tr>
                        </table>
                    </div>
                    <p style="margin: 10px 0 0 0; font-size: 10px; color: #999;">Source: rocketalert.live</p>
                </div>
            ]]></description>
            <styleUrl>#poly-critical</styleUrl>
            <TimeStamp><when>2026-05-16T02:24:55.000Z</when></TimeStamp>
            <Polygon>
                <outerBoundaryIs>
                    <LinearRing>
                        <coordinates>35.7767,33.2776,0 35.7783,33.2697,0 35.7789,33.2656,0 35.7774,33.2585,0 35.7771,33.2579,0 35.7769,33.2579,0 35.7695,33.25,0 35.7693,33.2501,0 35.7645,33.2448,0 35.7607,33.2489,0 35.7607,33.2492,0 35.7632,33.2533,0 35.7631,33.2533,0 35.7621,33.2554,0 35.7595,33.2602,0 35.7587,33.266,0 35.7555,33.2677,0 35.759,33.2726,0 35.7592,33.2727,0 35.7682,33.2758,0 35.7725,33.2783,0 35.7752,33.2785,0 35.7767,33.2776,0</coordinates>
                    </LinearRing>
                </outerBoundaryIs>
            </Polygon>
        </Placemark>
    </Folder>
</Document>
</kml>